{
"type": "FeatureCollection",
"name": "trittsteinbiotope",
"crs": { "type": "name", "properties": { "name": "urn:ogc:def:crs:OGC:1.3:CRS84" } },
"features": [
{ "type": "Feature", "properties": { "OBJEKT": "TRITT", "RAUMNR": 0, "LNUMMER": 539, "NAME": "Trittsteinbiotop ID 539", "STAND": "2024-09-25", "EMASST": 1000, "NWR_KEY": "TRITT_539", "CREATEUSER": "U0206911", "CREATETIME": "2025-02-10", "UPDATEUSER": "U0206911", "UPDATETIME": "2025-02-10" }, "geometry": { "type": "MultiPolygon", "coordinates": [ [ [ [ 11.215413144311398, 47.308857745537956 ], [ 11.215023154582449, 47.31057173495234 ], [ 11.217446146465278, 47.310936713349854 ], [ 11.217845146318286, 47.311063710519534 ], [ 11.219818133090779, 47.309898691889806 ], [ 11.215413144311398, 47.308857745537956 ] ] ] ] } },
{ "type": "Feature", "properties": { "OBJEKT": "TRITT", "RAUMNR": 0, "LNUMMER": 551, "NAME": "Trittsteinbiotop ID 551", "STAND": "2024-09-25", "EMASST": 1000, "NWR_KEY": "TRITT_551", "CREATEUSER": "U0206911", "CREATETIME": "2025-02-10", "UPDATEUSER": "U0206911", "UPDATETIME": "2025-02-10" }, "geometry": { "type": "MultiPolygon", "coordinates": [ [ [ [ 11.571057892643923, 47.339766342767447 ], [ 11.575241965383579, 47.339534354452475 ], [ 11.575945974628544, 47.33941034487556 ], [ 11.573312926360206, 47.33788132755204 ], [ 11.571886899501797, 47.337693314799026 ], [ 11.571057892643923, 47.339766342767447 ] ] ] ] } },
{ "type": "Feature", "properties": { "OBJEKT": "TRITT", "RAUMNR": 0, "LNUMMER": 790, "NAME": "Trittsteinbiotop ID 790", "STAND": "2023-11-21", "EMASST": 1000, "NWR_KEY": "TRITT_790", "CREATEUSER": "U0206911", "CREATETIME": "2025-02-10", "UPDATEUSER": "U0206911", "UPDATETIME": "2025-02-10" }, "geometry": { "type": "MultiPolygon", "coordinates": [ [ [ [ 11.494591843071907, 47.309340337009289 ], [ 11.495082843045942, 47.309583344775959 ], [ 11.496577839145056, 47.309861358876056 ], [ 11.497637833985271, 47.309689363657078 ], [ 11.497810831779098, 47.309236356792354 ], [ 11.497517829174612, 47.308401341230194 ], [ 11.497093829449975, 47.308075333238698 ], [ 11.495765836237734, 47.308651333964988 ], [ 11.494777840304973, 47.308822330329555 ], [ 11.494591843071907, 47.309340337009289 ] ] ] ] } },
{ "type": "Feature", "properties": { "OBJEKT": "NWD", "RAUMNR": 9, "LNUMMER": 62, "NAME": "Trittsteinbiotop Egerbacher", "STAND": "2025-11-26", "EMASST": 1000, "NWR_KEY": "NWD_9_62", "CREATEUSER": "U0206911", "CREATETIME": "2025-11-28", "UPDATEUSER": "U0206911", "UPDATETIME": "2025-11-28" }, "geometry": { "type": "MultiPolygon", "coordinates": [ [ [ [ 11.744047505865607, 47.398413003739471 ], [ 11.748433574107159, 47.3980501383923 ], [ 11.749196537620842, 47.396689184143938 ], [ 11.744121453572362, 47.396966031332816 ], [ 11.744047505865607, 47.398413003739471 ] ] ] ] } }
]
}
